HORYU-4                 
1 41340U 16012D   19352.87411315  .00000424  00000-0  25432-4 0  9992
2 41340  31.0061  48.0390 0013837 146.4387 213.7127 15.01378695210566
E-ST@R-II               
1 41459U 16025D   19353.02889073  .00001166  00000-0  62636-4 0  9996
2 41459  98.0990  88.7670 0167673 102.1126 259.8965 15.05918525200130
AAUSAT 4                
1 41460U 16025E   19352.96517658  .00001573  00000-0  80969-4 0  9998
2 41460  98.0966  90.4372 0157185  93.0638 268.8577 15.08003141200284
DIWATA-1                
1 41463U 98067HT  19353.08555550  .00043243  11921-4  13026-3 0  9991
2 41463  51.6263   7.9776 0002630  44.8520 353.4348 15.92986408208881
BEESAT-4                
1 41619U 16040W   19352.91755140  .00001221  00000-0  53935-4 0  9999
2 41619  97.3459  51.5341 0012908  98.6138 261.6562 15.23547329181755
CANX-7                  
1 41788U 16059F   19353.16996363  .00005409  00000-0  78782-3 0  9996
2 41788  98.2494  71.8439 0032388 156.3685 203.9023 14.75929474173053
RAVAN                   
1 41849U 16067B   19352.71268340  .00001035  00000-0  91831-4 0  9992
2 41849  97.9275  94.6377 0010255 124.0146 236.2052 14.98403921169405
CELTEE 1                
1 41850U 16067C   19353.01300531  .00000095  00000-0  13547-4 0  9990
2 41850  97.9213  93.1810 0009763 129.3341 230.8747 14.97090926169353
OPTICUBE 04             
1 41851U 16067D   19353.04749196  .00000195  00000-0  22278-4 0  9990
2 41851  97.9215  92.9267 0010103 128.0622 232.1512 14.96868407169347
AEROCUBE 8D             
1 41852U 16067E   19352.72515262 -.00000307  00000-0 -21529-4 0  9995
2 41852  97.9222  92.4278 0010588 130.5298 229.6846 14.96811957169278
AEROCUBE 8C             
1 41853U 16067F   19353.15355888  .00000399  00000-0  40133-4 0  9991
2 41853  97.9212  92.7824 0011142 132.0689 228.1482 14.96771191169338
PROMETHEUS 2-1          
1 41854U 16067G   19352.55702690  .00000641  00000-0  60888-4 0  9991
2 41854  97.9221  92.4006 0011517 133.3073 226.9110 14.97036608169258
PROMETHEUS 2-3          
1 41855U 16067H   19352.75914446  .00000764  00000-0  71583-4 0  9998
2 41855  97.9225  92.6289 0011743 132.9451 227.2757 14.97045446169288
INS-1B                  
1 41954U 17008G   19352.86622363  .00001129  00000-0  49017-4 0  9993
2 41954  97.3793  55.3211 0008226 212.0985 147.9753 15.24343119157704
BGUSAT                  
1 41999U 17008BD  19353.16684708  .00001959  00000-0  77192-4 0  9993
2 41999  97.3885  58.8140 0006999 221.7827 138.2878 15.26772163157282
DIDO-2                  
1 42000U 17008BE  19352.86733516  .00000784  00000-0  35096-4 0  9997
2 42000  97.3805  55.8699 0007140 232.8094 127.2492 15.24180674157101
PEASSS                  
1 42015U 17008BV  19352.90837343  .00001026  00000-0  43695-4 0  9995
2 42015  97.3819  57.1676 0004952 235.4446 124.6325 15.25219981157673
AL-FARABI 1             
1 42016U 17008BW  19352.82613159  .00001288  00000-0  52975-4 0  9995
2 42016  97.3841  57.8547 0004847 234.5265 125.5521 15.25948978157825
NAYIF-1 (EO-88)         
1 42017U 17008BX  19352.61273052  .00001332  00000-0  54627-4 0  9993
2 42017  97.3837  57.6554 0004837 235.4025 124.6758 15.25985572157812
NSIGHT                  
1 42726U 98067MF  19352.96526129  .00053244  00000-0  26015-3 0  9996
2 42726  51.6322  85.5084 0001940 187.2237 172.8738 15.81770205146717
UCLSAT                  
1 42765U 17036A   19352.85744432  .00001097  00000-0  49384-4 0  9997
2 42765  97.3282  46.7396 0010029 311.1829  48.8542 15.23112248138933
LITUANICASAT-2          
1 42768U 17036D   19352.88317010  .00001665  00000-0  72804-4 0  9995
2 42768  97.3327  46.5039 0013379 298.4444  61.5445 15.23392256138190
AALTO-1                 
1 42775U 17036L   19353.15844763  .00000659  00000-0  32225-4 0  9999
2 42775  97.3261  45.3382 0012413 299.8663  60.1339 15.21578806138102
URSA MAIOR              
1 42776U 17036M   19352.90480940  .00000728  00000-0  35125-4 0  9994
2 42776  97.3272  45.3025 0012244 300.7363  59.2667 15.21733264138070
COMPASS 2               
1 42777U 17036N   19353.15869096  .00001440  00000-0  63410-4 0  9996
2 42777  97.3320  47.2351 0010889 299.4054  60.6096 15.23378104138197
DIAMOND RED             
1 42783U 17036U   19352.83987104  .00000833  00000-0  38895-4 0  9992
2 42783  97.3282  46.1671 0010757 312.4896  47.5431 15.22499991138114
PEGASUS                 
1 42784U 17036V   19353.11020552  .00000987  00000-0  45091-4 0  9996
2 42784  97.3286  46.7447 0010592 310.6892  49.3424 15.22834553138174
DIAMOND GREEN           
1 42785U 17036W   19352.90443923  .00000863  00000-0  40165-4 0  9994
2 42785  97.3284  46.2596 0010661 312.9791  47.0551 15.22500841138191
DIAMOND BLUE            
1 42786U 17036X   19353.10077592  .00000861  00000-0  40078-4 0  9994
2 42786  97.3284  46.4479 0010492 312.5536  47.4814 15.22500702138146
NUDTSAT                 
1 42787U 17036Y   19353.11490638  .00001366  00000-0  59310-4 0  9996
2 42787  97.3320  47.7569 0011283 311.5417  48.4852 15.23964408138071
SUCHAI                  
1 42788U 17036Z   19352.80135960  .00001136  00000-0  50737-4 0  9995
2 42788  97.3293  46.8756 0010151 310.6827  49.3528 15.23311157138221
SKCUBE                  
1 42789U 17036AA  19352.89620848  .00001091  00000-0  49061-4 0  9997
2 42789  97.3288  46.8710 0010014 310.6667  49.3699 15.23184981138150
VZLUSAT-1               
1 42790U 17036AB  19352.83991461  .00001467  00000-0  63493-4 0  9997
2 42790  97.3308  47.4864 0009528 309.2644  50.7747 15.23950924138180
ROBUSTA-1B              
1 42792U 17036AD  19352.60917407  .00001070  00000-0  47893-4 0  9998
2 42792  97.3290  46.7878 0009615 312.6314  47.4112 15.23363010138136
CICERO 6                
1 42793U 17036AE  19352.85473810  .00000741  00000-0  34590-4 0  9995
2 42793  97.3269  46.6463 0008953 314.7211  45.3296 15.22844001138228
D-SAT                   
1 42794U 17036AF  19353.07007838  .00000217  00000-0  24455-4 0  9991
2 42794  97.5171  29.4755 0124985 250.0279 108.7444 14.91187526135667
CORVUS BC2              
1 42846U 17042X   19352.76843492  .00000301  00000-0  34950-4 0  9990
2 42846  97.5448 239.2333 0010073 156.1828 203.9860 14.92038406132315
CORVUS BC1              
1 42847U 17042Y   19352.91053816  .00000309  00000-0  35567-4 0  9994
2 42847  97.5450 239.5065 0009738 154.8134 205.3562 14.92139390132336
MIRATA                  
1 43015U 17073C   19352.81028228  .00000979  00000-0  82142-4 0  9998
2 43015  97.7217 266.9181 0253031 281.0636  76.2218 14.79319488112364
MAKERSAT 0              
1 43016U 17073D   19352.72415594  .00000683  00000-0  59170-4 0  9992
2 43016  97.7253 267.0370 0255449 281.9895  75.2791 14.78980395112341
ASTERIA                 
1 43020U 98067NH  19353.00748393  .00057613  00000-0  29260-3 0  9998
2 43020  51.6403  97.4134 0000762  51.3966 308.7104 15.80900472118743
DELLINGR (RBLE)         
1 43021U 98067NJ  19352.84348962  .00012942  00000-0  12783-3 0  9996
2 43021  51.6365 124.7580 0002033  88.9027 271.2202 15.66283834118368
AEROCUBE 7B (OCSD B)    
1 43042U 17071F   19352.95068780  .00003104  00000-0  80367-4 0  9998
2 43042  51.6372 236.3068 0005353 101.6667 258.4920 15.42294848114351
AEROCUBE 7C (OCSD C)    
1 43043U 17071G   19352.95129162  .00003148  00000-0  81446-4 0  9998
2 43043  51.6372 236.3255 0005572 105.4327 254.7274 15.42273717114328
CHEFSAT                 
1 43044U 17071H   19352.84495918  .00005928  00000-0  12894-3 0  9990
2 43044  51.6378 227.5546 0005498 107.3878 252.7711 15.45796411114439
ASGARDIA 1              
1 43049U 17071N   19352.82421829  .00002891  00000-0  75273-4 0  9990
2 43049  51.6384 236.2772 0003112 116.3052 243.8253 15.42385519114313
ISARA                   
1 43050U 17071P   19352.85962678  .00005204  00000-0  11679-3 0  9997
2 43050  51.6362 229.0779 0003129 115.9114 244.2195 15.45142414114419
PROPCUBE 2 (FAUNA)      
1 43052U 17071R   19352.98739951  .00003020  00000-0  77314-4 0  9992
2 43052  51.6379 234.3864 0003080 114.3102 245.8206 15.42741284114348
CORVUS BC3              
1 43118U 18004H   19352.91963549  .00000662  00000-0  31074-4 0  9999
2 43118  97.4672  59.4813 0009617 338.1268  21.9556 15.23092160107362
MICROMAS-2A             
1 43131U 18004W   19353.15129301  .00001644  00000-0  69470-4 0  9993
2 43131  97.4708  60.8630 0008495 338.4202  21.6676 15.24659362107469
SPACEBEE-4              
1 43139U 18004AE  19352.86394367  .00002169  00000-0  87973-4 0  9995
2 43139  97.4732  61.3650 0007884 341.7770  18.3184 15.25706206107468
SPACEBEE-3              
1 43140U 18004AF  19353.16452335  .00002981  00000-0  11738-3 0  9998
2 43140  97.4741  62.0991 0007507 339.4359  20.6576 15.26397716107537
SPACEBEE-2              
1 43141U 18004AG  19352.78281896  .00002952  00000-0  11545-3 0  9992
2 43141  97.4752  61.8721 0007468 340.5581  19.5372 15.26628614107483
SPACEBEE-1              
1 43142U 18004AH  19352.91853645  .00003392  00000-0  13116-3 0  9990
2 43142  97.4754  62.1748 0007443 339.8644  20.2300 15.26900245107509
CICERO 7                
1 43143U 18004AJ  19353.16082790  .00001569  00000-0  66252-4 0  9998
2 43143  97.4690  61.0810 0006966 351.1359   8.9754 15.24757541107486
GOMX-4B                 
1 43196U 18015E   19352.62833706  .00000364  00000-0  17872-4 0  9995
2 43196  97.4148 117.8860 0019867  28.1350 332.0957 15.24093327104201
GOMX-4A                 
1 43197U 18015F   19353.13782959  .00000643  00000-0  29174-4 0  9994
2 43197  97.4148 118.4353 0019932  27.2362  58.2735 15.24234769104299
1KUNS-PF                
1 43466U 98067NP  19352.81112258  .00041049  00000-0  27282-3 0  9993
2 43466  51.6329 119.9269 0000830 230.2019 129.8907 15.75016839 91681
UBAKUSAT                
1 43467U 98067NQ  19353.01730472  .00019284  00000-0  17859-3 0  9996
2 43467  51.6348 129.6143 0001391  62.3767 297.7370 15.67527370 91585
